{
  "type": "FeatureCollection",
  "features": [
    {
      "type": "Feature",
      "properties": {
        "norad_id": 32275,
        "name": "COSMOS 2433 (720)",
        "group": "glo-ops",
        "lat": -65.48266586152684,
        "lon": -120.24491153371356,
        "alt_km": 19123.132256301844,
        "timestamp": "2025-12-13T10:41:26.026789+00:00",
        "meta_object_name": "COSMOS 2433 (720)",
        "meta_object_id": "2007-052A",
        "meta_epoch": "2025-12-10T06:34:19.673184",
        "meta_mean_motion": 2.13103813,
        "meta_eccentricity": 0.00055546,
        "meta_inclination": 65.6847,
        "meta_ra_of_asc_node": 322.2886,
        "meta_arg_of_pericenter": 252.6006,
        "meta_mean_anomaly": 107.3381,
        "meta_ephemeris_type": 0,
        "meta_classification_type": "U",
        "meta_norad_cat_id": 32275,
        "meta_element_set_no": 999,
        "meta_rev_at_epoch": 14103,
        "meta_bstar": 0,
        "meta_mean_motion_dot": -5e-07,
        "meta_mean_motion_ddot": 0,
        "tle_line1": "1 32275U 07052A   25344.27383881 -.00000050  00000+0  00000+0 0  9995",
        "tle_line2": "2 32275  65.6847 322.2886 0005554 252.6006 107.3381  2.13103813141032"
      },
      "geometry": {
        "type": "Point",
        "coordinates": [
          -120.24491153371356,
          -65.48266586152684
        ]
      }
    },
    {
      "type": "Feature",
      "properties": {
        "norad_id": 32276,
        "name": "COSMOS 2432 (719)",
        "group": "glo-ops",
        "lat": -33.67601608837928,
        "lon": 159.81604263620525,
        "alt_km": 19136.255201985347,
        "timestamp": "2025-12-13T10:41:26.026811+00:00",
        "meta_object_name": "COSMOS 2432 (719)",
        "meta_object_id": "2007-052B",
        "meta_epoch": "2025-12-10T13:56:19.351392",
        "meta_mean_motion": 2.13102999,
        "meta_eccentricity": 0.0011254,
        "meta_inclination": 65.7001,
        "meta_ra_of_asc_node": 322.4023,
        "meta_arg_of_pericenter": 311.5771,
        "meta_mean_anomaly": 228.309,
        "meta_ephemeris_type": 0,
        "meta_classification_type": "U",
        "meta_norad_cat_id": 32276,
        "meta_element_set_no": 999,
        "meta_rev_at_epoch": 14106,
        "meta_bstar": 0,
        "meta_mean_motion_dot": -5e-07,
        "meta_mean_motion_ddot": 0,
        "tle_line1": "1 32276U 07052B   25344.58077953 -.00000050  00000+0  00000+0 0  9990",
        "tle_line2": "2 32276  65.7001 322.4023 0011254 311.5771 228.3090  2.13102999141067"
      },
      "geometry": {
        "type": "Point",
        "coordinates": [
          159.81604263620525,
          -33.67601608837928
        ]
      }
    },
    {
      "type": "Feature",
      "properties": {
        "norad_id": 32393,
        "name": "COSMOS 2434 (721)",
        "group": "glo-ops",
        "lat": 14.600308872104529,
        "lon": 10.9810412226017,
        "alt_km": 19129.05766137267,
        "timestamp": "2025-12-13T10:41:26.026827+00:00",
        "meta_object_name": "COSMOS 2434 (721)",
        "meta_object_id": "2007-065A",
        "meta_epoch": "2025-12-10T15:35:17.035872",
        "meta_mean_motion": 2.13101152,
        "meta_eccentricity": 0.0004304,
        "meta_inclination": 64.3147,
        "meta_ra_of_asc_node": 198.2738,
        "meta_arg_of_pericenter": 71.148,
        "meta_mean_anomaly": 107.63,
        "meta_ephemeris_type": 0,
        "meta_classification_type": "U",
        "meta_norad_cat_id": 32393,
        "meta_element_set_no": 999,
        "meta_rev_at_epoch": 13975,
        "meta_bstar": 0,
        "meta_mean_motion_dot": 4.8e-07,
        "meta_mean_motion_ddot": 0,
        "tle_line1": "1 32393U 07065A   25344.64950273  .00000048  00000+0  00000+0 0  9992",
        "tle_line2": "2 32393  64.3147 198.2738 0004304  71.1480 107.6300  2.13101152139755"
      },
      "geometry": {
        "type": "Point",
        "coordinates": [
          10.9810412226017,
          14.600308872104529
        ]
      }
    },
    {
      "type": "Feature",
      "properties": {
        "norad_id": 32395,
        "name": "COSMOS 2436 (723)",
        "group": "glo-ops",
        "lat": -53.7234305704849,
        "lon": 157.30166825766372,
        "alt_km": 19122.555104443833,
        "timestamp": "2025-12-13T10:41:26.026840+00:00",
        "meta_object_name": "COSMOS 2436 (723)",
        "meta_object_id": "2007-065C",
        "meta_epoch": "2025-12-08T02:01:11.627904",
        "meta_mean_motion": 2.13100022,
        "meta_eccentricity": 0.00177472,
        "meta_inclination": 64.3236,
        "meta_ra_of_asc_node": 198.4308,
        "meta_arg_of_pericenter": 9.2257,
        "meta_mean_anomaly": 134.6131,
        "meta_ephemeris_type": 0,
        "meta_classification_type": "U",
        "meta_norad_cat_id": 32395,
        "meta_element_set_no": 999,
        "meta_rev_at_epoch": 13965,
        "meta_bstar": 0,
        "meta_mean_motion_dot": 5.1e-07,
        "meta_mean_motion_ddot": 0,
        "tle_line1": "1 32395U 07065C   25342.08416236  .00000051  00000+0  00000+0 0  9990",
        "tle_line2": "2 32395  64.3236 198.4308 0017747   9.2257 134.6131  2.13100022139656"
      },
      "geometry": {
        "type": "Point",
        "coordinates": [
          157.30166825766372,
          -53.7234305704849
        ]
      }
    },
    {
      "type": "Feature",
      "properties": {
        "norad_id": 36111,
        "name": "COSMOS 2456 (730)",
        "group": "glo-ops",
        "lat": -34.91822897524592,
        "lon": 58.24859487524387,
        "alt_km": 19127.643319382747,
        "timestamp": "2025-12-13T10:41:26.026852+00:00",
        "meta_object_name": "COSMOS 2456 (730)",
        "meta_object_id": "2009-070A",
        "meta_epoch": "2025-12-09T05:47:54.858624",
        "meta_mean_motion": 2.13103359,
        "meta_eccentricity": 0.00028383,
        "meta_inclination": 64.8981,
        "meta_ra_of_asc_node": 77.4578,
        "meta_arg_of_pericenter": 298.5783,
        "meta_mean_anomaly": 37.1692,
        "meta_ephemeris_type": 0,
        "meta_classification_type": "U",
        "meta_norad_cat_id": 36111,
        "meta_element_set_no": 999,
        "meta_rev_at_epoch": 12437,
        "meta_bstar": 0,
        "meta_mean_motion_dot": -1.7e-07,
        "meta_mean_motion_ddot": 0,
        "tle_line1": "1 36111U 09070A   25343.24160716 -.00000017  00000+0  00000+0 0  9999",
        "tle_line2": "2 36111  64.8981  77.4578 0002838 298.5783  37.1692  2.13103359124373"
      },
      "geometry": {
        "type": "Point",
        "coordinates": [
          58.24859487524387,
          -34.91822897524592
        ]
      }
    },
    {
      "type": "Feature",
      "properties": {
        "norad_id": 36112,
        "name": "COSMOS 2457 (733)",
        "group": "glo-ops",
        "lat": 64.90403756784498,
        "lon": 166.93554015732659,
        "alt_km": 19118.4997834551,
        "timestamp": "2025-12-13T10:41:26.026864+00:00",
        "meta_object_name": "COSMOS 2457 (733)",
        "meta_object_id": "2009-070B",
        "meta_epoch": "2025-12-13T01:04:44.050656",
        "meta_mean_motion": 2.13100824,
        "meta_eccentricity": 0.00047194,
        "meta_inclination": 64.8858,
        "meta_ra_of_asc_node": 77.1749,
        "meta_arg_of_pericenter": 157.6277,
        "meta_mean_anomaly": 345.0739,
        "meta_ephemeris_type": 0,
        "meta_classification_type": "U",
        "meta_norad_cat_id": 36112,
        "meta_element_set_no": 999,
        "meta_rev_at_epoch": 12446,
        "meta_bstar": 0,
        "meta_mean_motion_dot": -4.9e-07,
        "meta_mean_motion_ddot": 0,
        "tle_line1": "1 36112U 09070B   25347.04495429 -.00000049  00000+0  00000+0 0  9999",
        "tle_line2": "2 36112  64.8858  77.1749 0004719 157.6277 345.0739  2.13100824124464"
      },
      "geometry": {
        "type": "Point",
        "coordinates": [
          166.93554015732659,
          64.90403756784498
        ]
      }
    },
    {
      "type": "Feature",
      "properties": {
        "norad_id": 36402,
        "name": "COSMOS 2460 (732)",
        "group": "glo-ops",
        "lat": 65.51385509208609,
        "lon": 49.43349498620407,
        "alt_km": 19129.739442972157,
        "timestamp": "2025-12-13T10:41:26.026875+00:00",
        "meta_object_name": "COSMOS 2460 (732)",
        "meta_object_id": "2010-007C",
        "meta_epoch": "2025-12-09T19:21:37.643616",
        "meta_mean_motion": 2.13105924,
        "meta_eccentricity": 0.00027883,
        "meta_inclination": 65.5316,
        "meta_ra_of_asc_node": 320.8726,
        "meta_arg_of_pericenter": 272.035,
        "meta_mean_anomaly": 265.828,
        "meta_ephemeris_type": 0,
        "meta_classification_type": "U",
        "meta_norad_cat_id": 36402,
        "meta_element_set_no": 999,
        "meta_rev_at_epoch": 12269,
        "meta_bstar": 0,
        "meta_mean_motion_dot": -4.9e-07,
        "meta_mean_motion_ddot": 0,
        "tle_line1": "1 36402U 10007C   25343.80668569 -.00000049  00000+0  00000+0 0  9990",
        "tle_line2": "2 36402  65.5316 320.8726 0002788 272.0350 265.8280  2.13105924122693"
      },
      "geometry": {
        "type": "Point",
        "coordinates": [
          49.43349498620407,
          65.51385509208609
        ]
      }
    }
  ]
}